[{"OBJECT_NAME":"STARLINK-1997","OBJECT_ID":"2021-009AW","EPOCH":"2026-03-09T04:35:42.379872","MEAN_MOTION":15.65371182,"ECCENTRICITY":0.00077498,"INCLINATION":53.0432,"RA_OF_ASC_NODE":2.865,"ARG_OF_PERICENTER":83.1851,"MEAN_ANOMALY":277.0045,"EPHEMERIS_TYPE":0,"CLASSIFICATION_TYPE":"U","NORAD_CAT_ID":47592,"ELEMENT_SET_NO":999,"REV_AT_EPOCH":28101,"BSTAR":0.00091771291,"MEAN_MOTION_DOT":0.00093829,"MEAN_MOTION_DDOT":0},{"OBJECT_NAME":"PEGASUS R\/B","OBJECT_ID":"2016-078J","EPOCH":"2026-03-09T11:17:36.981888","MEAN_MOTION":15.6531625,"ECCENTRICITY":0.00040638,"INCLINATION":34.9316,"RA_OF_ASC_NODE":130.3822,"ARG_OF_PERICENTER":356.4457,"MEAN_ANOMALY":3.624,"EPHEMERIS_TYPE":0,"CLASSIFICATION_TYPE":"U","NORAD_CAT_ID":41892,"ELEMENT_SET_NO":999,"REV_AT_EPOCH":51401,"BSTAR":0.00053938647,"MEAN_MOTION_DOT":0.00055892,"MEAN_MOTION_DDOT":0}]
